{
  "type": "FeatureCollection",
  "features": [
    {
      "type": "Feature",
      "properties": {
        "norad_id": 39160,
        "name": "VNREDSAT 1",
        "group": "resource",
        "lat": 46.966411123260535,
        "lon": -139.03668346228162,
        "alt_km": 672.6293070008478,
        "timestamp": "2025-12-02T17:49:11.682639+00:00",
        "meta_object_name": "VNREDSAT 1",
        "meta_object_id": "2013-021B",
        "meta_epoch": "2025-12-02T12:17:59.598240",
        "meta_mean_motion": 14.64897455,
        "meta_eccentricity": 0.0001382,
        "meta_inclination": 97.9388,
        "meta_ra_of_asc_node": 32.1453,
        "meta_arg_of_pericenter": 84.1199,
        "meta_mean_anomaly": 276.0162,
        "meta_ephemeris_type": 0,
        "meta_classification_type": "U",
        "meta_norad_cat_id": 39160,
        "meta_element_set_no": 999,
        "meta_rev_at_epoch": 67149,
        "meta_bstar": 0.00019865,
        "meta_mean_motion_dot": 1.016e-05,
        "meta_mean_motion_ddot": 0,
        "tle_line1": "1 39160U 13021B   25336.51249535  .00001016  00000+0  19865-3 0  9998",
        "tle_line2": "2 39160  97.9388  32.1453 0001382  84.1199 276.0162 14.64897455671493"
      },
      "geometry": {
        "type": "Point",
        "coordinates": [
          -139.03668346228162,
          46.966411123260535
        ]
      }
    },
    {
      "type": "Feature",
      "properties": {
        "norad_id": 39227,
        "name": "ARIRANG-5 (KOMPSAT-5)",
        "group": "resource",
        "lat": -47.52895405328796,
        "lon": -27.216055514009156,
        "alt_km": 562.3715666250246,
        "timestamp": "2025-12-02T17:49:11.682649+00:00",
        "meta_object_name": "ARIRANG-5 (KOMPSAT-5)",
        "meta_object_id": "2013-042A",
        "meta_epoch": "2025-12-02T12:01:16.355136",
        "meta_mean_motion": 15.04498217,
        "meta_eccentricity": 0.0004353,
        "meta_inclination": 97.6159,
        "meta_ra_of_asc_node": 160.9508,
        "meta_arg_of_pericenter": 83.8481,
        "meta_mean_anomaly": 276.3241,
        "meta_ephemeris_type": 0,
        "meta_classification_type": "U",
        "meta_norad_cat_id": 39227,
        "meta_element_set_no": 999,
        "meta_rev_at_epoch": 67428,
        "meta_bstar": 0.00017429,
        "meta_mean_motion_dot": 2.379e-05,
        "meta_mean_motion_ddot": 0,
        "tle_line1": "1 39227U 13042A   25336.50088374  .00002379  00000+0  17429-3 0  9993",
        "tle_line2": "2 39227  97.6159 160.9508 0004353  83.8481 276.3241 15.04498217674281"
      },
      "geometry": {
        "type": "Point",
        "coordinates": [
          -27.216055514009156,
          -47.52895405328796
        ]
      }
    },
    {
      "type": "Feature",
      "properties": {
        "norad_id": 39418,
        "name": "SKYSAT-A",
        "group": "resource",
        "lat": -11.526869775703586,
        "lon": 28.776763911123922,
        "alt_km": 532.3957766933663,
        "timestamp": "2025-12-02T17:49:11.682659+00:00",
        "meta_object_name": "SKYSAT-A",
        "meta_object_id": "2013-066C",
        "meta_epoch": "2025-12-02T09:55:36.940800",
        "meta_mean_motion": 15.11481432,
        "meta_eccentricity": 0.0020479,
        "meta_inclination": 97.413,
        "meta_ra_of_asc_node": 26.9363,
        "meta_arg_of_pericenter": 274.7664,
        "meta_mean_anomaly": 85.1227,
        "meta_ephemeris_type": 0,
        "meta_classification_type": "U",
        "meta_norad_cat_id": 39418,
        "meta_element_set_no": 999,
        "meta_rev_at_epoch": 65874,
        "meta_bstar": 0.00029115,
        "meta_mean_motion_dot": 4.888e-05,
        "meta_mean_motion_ddot": 0,
        "tle_line1": "1 39418U 13066C   25336.41362200  .00004888  00000+0  29115-3 0  9996",
        "tle_line2": "2 39418  97.4130  26.9363 0020479 274.7664  85.1227 15.11481432658743"
      },
      "geometry": {
        "type": "Point",
        "coordinates": [
          28.776763911123922,
          -11.526869775703586
        ]
      }
    },
    {
      "type": "Feature",
      "properties": {
        "norad_id": 39419,
        "name": "DUBAISAT-2",
        "group": "resource",
        "lat": -66.42288401636843,
        "lon": 130.0260933529212,
        "alt_km": 551.8222088864277,
        "timestamp": "2025-12-02T17:49:11.682670+00:00",
        "meta_object_name": "DUBAISAT-2",
        "meta_object_id": "2013-066D",
        "meta_epoch": "2025-12-02T13:32:25.830240",
        "meta_mean_motion": 15.0820021,
        "meta_eccentricity": 0.0011598,
        "meta_inclination": 97.4443,
        "meta_ra_of_asc_node": 327.2875,
        "meta_arg_of_pericenter": 359.1022,
        "meta_mean_anomaly": 1.0184,
        "meta_ephemeris_type": 0,
        "meta_classification_type": "U",
        "meta_norad_cat_id": 39419,
        "meta_element_set_no": 999,
        "meta_rev_at_epoch": 65673,
        "meta_bstar": 0.0004051,
        "meta_mean_motion_dot": 6.215e-05,
        "meta_mean_motion_ddot": 0,
        "tle_line1": "1 39419U 13066D   25336.56418785  .00006215  00000+0  40510-3 0  9991",
        "tle_line2": "2 39419  97.4443 327.2875 0011598 359.1022   1.0184 15.08200210656739"
      },
      "geometry": {
        "type": "Point",
        "coordinates": [
          130.0260933529212,
          -66.42288401636843
        ]
      }
    },
    {
      "type": "Feature",
      "properties": {
        "norad_id": 39574,
        "name": "GPM-CORE",
        "group": "resource",
        "lat": 60.20958299846798,
        "lon": 11.49699165981129,
        "alt_km": 430.94617902079153,
        "timestamp": "2025-12-02T17:49:11.682680+00:00",
        "meta_object_name": "GPM-CORE",
        "meta_object_id": "2014-009C",
        "meta_epoch": "2025-12-02T11:08:45.525120",
        "meta_mean_motion": 15.45133019,
        "meta_eccentricity": 0.0010578,
        "meta_inclination": 64.9754,
        "meta_ra_of_asc_node": 247.1178,
        "meta_arg_of_pericenter": 268.5101,
        "meta_mean_anomaly": 91.4828,
        "meta_ephemeris_type": 0,
        "meta_classification_type": "U",
        "meta_norad_cat_id": 39574,
        "meta_element_set_no": 999,
        "meta_rev_at_epoch": 66742,
        "meta_bstar": 0.00039235,
        "meta_mean_motion_dot": 0.0001852,
        "meta_mean_motion_ddot": 0,
        "tle_line1": "1 39574U 14009C   25336.46441580  .00018520  00000+0  39235-3 0  9993",
        "tle_line2": "2 39574  64.9754 247.1178 0010578 268.5101  91.4828 15.45133019667428"
      },
      "geometry": {
        "type": "Point",
        "coordinates": [
          11.49699165981129,
          60.20958299846798
        ]
      }
    },
    {
      "type": "Feature",
      "properties": {
        "norad_id": 39634,
        "name": "SENTINEL-1A",
        "group": "resource",
        "lat": -18.310954200233613,
        "lon": 159.40286916404045,
        "alt_km": 701.0875206823712,
        "timestamp": "2025-12-02T17:49:11.682690+00:00",
        "meta_object_name": "SENTINEL-1A",
        "meta_object_id": "2014-016A",
        "meta_epoch": "2025-12-02T13:37:20.085312",
        "meta_mean_motion": 14.59200912,
        "meta_eccentricity": 0.0001258,
        "meta_inclination": 98.1805,
        "meta_ra_of_asc_node": 341.9591,
        "meta_arg_of_pericenter": 88.9666,
        "meta_mean_anomaly": 271.1678,
        "meta_ephemeris_type": 0,
        "meta_classification_type": "U",
        "meta_norad_cat_id": 39634,
        "meta_element_set_no": 999,
        "meta_rev_at_epoch": 62134,
        "meta_bstar": 7.4424e-05,
        "meta_mean_motion_dot": 3.05e-06,
        "meta_mean_motion_ddot": 0,
        "tle_line1": "1 39634U 14016A   25336.56759358  .00000305  00000+0  74424-4 0  9996",
        "tle_line2": "2 39634  98.1805 341.9591 0001258  88.9666 271.1678 14.59200912621340"
      },
      "geometry": {
        "type": "Point",
        "coordinates": [
          159.40286916404045,
          -18.310954200233613
        ]
      }
    },
    {
      "type": "Feature",
      "properties": {
        "norad_id": 39731,
        "name": "KAZEOSAT 1",
        "group": "resource",
        "lat": 67.29865309718268,
        "lon": 28.334499749862154,
        "alt_km": 744.4967471282553,
        "timestamp": "2025-12-02T17:49:11.682699+00:00",
        "meta_object_name": "KAZEOSAT 1",
        "meta_object_id": "2014-024A",
        "meta_epoch": "2025-12-02T12:30:22.353120",
        "meta_mean_motion": 14.42052775,
        "meta_eccentricity": 0.0001055,
        "meta_inclination": 98.3445,
        "meta_ra_of_asc_node": 48.6573,
        "meta_arg_of_pericenter": 98.7106,
        "meta_mean_anomaly": 261.4203,
        "meta_ephemeris_type": 0,
        "meta_classification_type": "U",
        "meta_norad_cat_id": 39731,
        "meta_element_set_no": 999,
        "meta_rev_at_epoch": 61021,
        "meta_bstar": 0.00011852,
        "meta_mean_motion_dot": 3.46e-06,
        "meta_mean_motion_ddot": 0,
        "tle_line1": "1 39731U 14024A   25336.52109205  .00000346  00000+0  11852-3 0  9999",
        "tle_line2": "2 39731  98.3445  48.6573 0001055  98.7106 261.4203 14.42052775610218"
      },
      "geometry": {
        "type": "Point",
        "coordinates": [
          28.334499749862154,
          67.29865309718268
        ]
      }
    }
  ]
}